[Satellite]
VERSION=1.1
NAME=CZ-2D DEB
NICKNAME=CZ-2D DEB
TLE1=1 53944U 22120B   22297.24426347  .00024436  00000+0  91908-3 0  9994
TLE2=2 53944  34.9987  10.7620 0007864 154.2664 257.9405 15.26203278  4233
STATUS=0
